LEMUR-2-HUBBLE-4        
1 64565U 25135AP  26202.10326946  .00000723  00000+0  73730-4 0  9990
2 64565  97.7722 315.6187 0003105 148.5011 211.6396 14.93695378 58930
LEMUR-2-SEJONG-2        
1 64586U 25135BL  26202.26433582  .00003697  00000+0  32679-3 0  9994
2 64586  97.7710 317.0616 0004327 190.6239 169.4892 14.96944520 59043
LEMUR-2-HUBBLE-5        
1 64840U 25135BT  26201.84215953  .00000718  00000+0  72278-4 0  9991
2 64840  97.7742 316.0356 0004767 212.8278 147.2647 14.94221604 58937
LEMUR-2-KARENDARRELL    
1 64841U 25135BU  26201.86468056  .00005189  00000+0  41543-3 0  9995
2 64841  97.7720 318.0329 0012895  87.6727 272.5973 15.00548023 59068
LEMUR-2-LUCILLE-ROSE    
1 65403U 25135BV  26202.10493445  .00005111  00000+0  40913-3 0  9993
2 65403  97.7694 318.3070 0015477 171.4432 188.7058 15.00533214 53728
LEMUR-2-AFFIE-WAUWIE    
1 66295U 25248C   26202.25206031  .00016937  00000+0  60964-3 0  9993
2 66295  45.3907 290.2433 0009304 283.2240  76.7611 15.28420340 39805
OTTER SDM               
1 66678U 25276N   26202.15354368  .00004414  00000+0  20749-3 0  9999
2 66678  97.4195 275.0715 0004701 227.0821 133.0021 15.20098954 35574
LEMUR-2-STAS-GORBUK     
1 66686U 25276W   26202.17654471  .00003730  00000+0  17790-3 0  9990
2 66686  97.4229 275.1450 0004043 220.9680 139.1252 15.19695406 35578
LEMUR-2-TEODOR          
1 66768U 25276DG  26202.12294990  .00004025  00000+0  18261-3 0  9994
2 66768  97.4132 275.3717 0002092  83.2152 276.9322 15.21376204 35603
LEMUR-2-LAILA           
1 66776U 25276DQ  26202.15763270  .00004167  00000+0  18771-3 0  9991
2 66776  97.4155 275.5482 0002827  85.7271 274.4288 15.21603356 35619
LEMUR-2-CELIJO-SB-PK    
1 66781U 25276DW  26202.12073164  .00004289  00000+0  34639-3 0  9996
2 66781  97.5182 271.7774 0006654  49.8981 310.2825 15.00324552 27712
LEMUR-2-FINNIAN         
1 66782U 25276DX  26201.75628909  .00001617  00000+0  13238-3 0  9992
2 66782  97.5347 271.7055 0006882 339.6977  20.3973 15.00651615 25035
LEMUR-2-STARLIGHT       
1 66783U 25276DY  26202.14197301  .00005194  00000+0  42784-3 0  9996
2 66783  97.5237 271.6217 0014569  29.2659 330.9377 14.99404237 35282
LEMUR-2-TARTIFLETTE     
1 66784U 25276DZ  26202.14044286  .00004882  00000+0  40272-3 0  9993
2 66784  97.5234 271.6280 0013828  38.0070 322.2126 14.99385365 35288
LEMUR-2-VUKASIN         
1 66785U 25276EA  26202.17273402  .00003742  00000+0  30092-3 0  9994
2 66785  97.5200 272.0268 0002122  33.3780 326.7577 15.00579723 35245
LEMUR-2-HOTSPUR-TOM     
1 66786U 25276EB  26202.20198678  .00004392  00000+0  36379-3 0  9996
2 66786  97.5213 271.6592 0013553  29.6635 330.5355 14.99281418 35225
